[{"OBJECT_NAME":"IRIDIUM 109","OBJECT_ID":"2017-003C","EPOCH":"2026-03-09T16:03:22.246272","MEAN_MOTION":14.34217553,"ECCENTRICITY":0.00020925,"INCLINATION":86.3982,"RA_OF_ASC_NODE":130.128,"ARG_OF_PERICENTER":95.091,"MEAN_ANOMALY":265.0525,"EPHEMERIS_TYPE":0,"CLASSIFICATION_TYPE":"U","NORAD_CAT_ID":41919,"ELEMENT_SET_NO":999,"REV_AT_EPOCH":47893,"BSTAR":-6.19911e-6,"MEAN_MOTION_DOT":2.0e-8,"MEAN_MOTION_DDOT":0},{"OBJECT_NAME":"COSMOS 1814","OBJECT_ID":"1987-006A","EPOCH":"2026-03-09T11:04:25.150944","MEAN_MOTION":14.35975134,"ECCENTRICITY":0.00252187,"INCLINATION":74.0536,"RA_OF_ASC_NODE":80.4753,"ARG_OF_PERICENTER":206.8078,"MEAN_ANOMALY":153.1774,"EPHEMERIS_TYPE":0,"CLASSIFICATION_TYPE":"U","NORAD_CAT_ID":17303,"ELEMENT_SET_NO":999,"REV_AT_EPOCH":4792,"BSTAR":6.2575979e-5,"MEAN_MOTION_DOT":1.56e-6,"MEAN_MOTION_DDOT":0}]
